[{"OBJECT_NAME":"STARLINK-31149","OBJECT_ID":"2024-019L","EPOCH":"2026-03-03T15:34:19.917696","MEAN_MOTION":15.27555696,"ECCENTRICITY":6.94e-5,"INCLINATION":42.9989,"RA_OF_ASC_NODE":282.6043,"ARG_OF_PERICENTER":267.3047,"MEAN_ANOMALY":92.7725,"EPHEMERIS_TYPE":0,"CLASSIFICATION_TYPE":"U","NORAD_CAT_ID":58863,"ELEMENT_SET_NO":999,"REV_AT_EPOCH":11816,"BSTAR":0.00018826,"MEAN_MOTION_DOT":4.918e-5,"MEAN_MOTION_DDOT":0},{"OBJECT_NAME":"STARLINK-31242","OBJECT_ID":"2024-019M","EPOCH":"2026-03-03T14:48:17.332992","MEAN_MOTION":15.2759081,"ECCENTRICITY":0.0001991,"INCLINATION":43.0035,"RA_OF_ASC_NODE":283.2203,"ARG_OF_PERICENTER":261.9267,"MEAN_ANOMALY":98.1359,"EPHEMERIS_TYPE":0,"CLASSIFICATION_TYPE":"U","NORAD_CAT_ID":58864,"ELEMENT_SET_NO":999,"REV_AT_EPOCH":11815,"BSTAR":-9.7262e-5,"MEAN_MOTION_DOT":-2.939e-5,"MEAN_MOTION_DDOT":0},{"OBJECT_NAME":"STARLINK-31223","OBJECT_ID":"2024-019N","EPOCH":"2026-03-03T14:50:08.381184","MEAN_MOTION":15.27576953,"ECCENTRICITY":8.54e-5,"INCLINATION":43.0014,"RA_OF_ASC_NODE":283.238,"ARG_OF_PERICENTER":260.571,"MEAN_ANOMALY":99.5045,"EPHEMERIS_TYPE":0,"CLASSIFICATION_TYPE":"U","NORAD_CAT_ID":58865,"ELEMENT_SET_NO":999,"REV_AT_EPOCH":11813,"BSTAR":4.8569e-5,"MEAN_MOTION_DOT":1.075e-5,"MEAN_MOTION_DDOT":0},{"OBJECT_NAME":"STARLINK-31219","OBJECT_ID":"2024-019P","EPOCH":"2026-03-03T15:49:08.606496","MEAN_MOTION":15.27576617,"ECCENTRICITY":0.0001005,"INCLINATION":43.0029,"RA_OF_ASC_NODE":282.6793,"ARG_OF_PERICENTER":274.9211,"MEAN_ANOMALY":85.1526,"EPHEMERIS_TYPE":0,"CLASSIFICATION_TYPE":"U","NORAD_CAT_ID":58866,"ELEMENT_SET_NO":999,"REV_AT_EPOCH":11814,"BSTAR":1.6671e-5,"MEAN_MOTION_DOT":1.97e-6,"MEAN_MOTION_DDOT":0},{"OBJECT_NAME":"STARLINK-31198","OBJECT_ID":"2024-019Q","EPOCH":"2026-03-03T00:20:31.060032","MEAN_MOTION":15.27580356,"ECCENTRICITY":0.00015706,"INCLINATION":43.0041,"RA_OF_ASC_NODE":286.4223,"ARG_OF_PERICENTER":274.5044,"MEAN_ANOMALY":85.5628,"EPHEMERIS_TYPE":0,"CLASSIFICATION_TYPE":"U","NORAD_CAT_ID":58867,"ELEMENT_SET_NO":999,"REV_AT_EPOCH":11804,"BSTAR":2.3676519e-5,"MEAN_MOTION_DOT":3.89e-6,"MEAN_MOTION_DDOT":0},{"OBJECT_NAME":"STARLINK-31196","OBJECT_ID":"2024-019R","EPOCH":"2026-03-03T01:17:53.141856","MEAN_MOTION":15.27579041,"ECCENTRICITY":8.885e-5,"INCLINATION":42.9993,"RA_OF_ASC_NODE":286.7346,"ARG_OF_PERICENTER":265.2299,"MEAN_ANOMALY":94.8451,"EPHEMERIS_TYPE":0,"CLASSIFICATION_TYPE":"U","NORAD_CAT_ID":58868,"ELEMENT_SET_NO":999,"REV_AT_EPOCH":11804,"BSTAR":-2.6546262e-5,"MEAN_MOTION_DOT":-9.92e-6,"MEAN_MOTION_DDOT":0},{"OBJECT_NAME":"STARLINK-31203","OBJECT_ID":"2024-019S","EPOCH":"2026-03-03T00:24:55.023264","MEAN_MOTION":15.27578084,"ECCENTRICITY":0.00011976,"INCLINATION":43.0032,"RA_OF_ASC_NODE":282.9803,"ARG_OF_PERICENTER":268.2189,"MEAN_ANOMALY":91.8526,"EPHEMERIS_TYPE":0,"CLASSIFICATION_TYPE":"U","NORAD_CAT_ID":58869,"ELEMENT_SET_NO":999,"REV_AT_EPOCH":11810,"BSTAR":7.232486e-6,"MEAN_MOTION_DOT":-6.3e-7,"MEAN_MOTION_DDOT":0},{"OBJECT_NAME":"STARLINK-31201","OBJECT_ID":"2024-019T","EPOCH":"2026-03-03T15:38:01.886208","MEAN_MOTION":15.27578887,"ECCENTRICITY":0.0001015,"INCLINATION":43.0013,"RA_OF_ASC_NODE":282.6229,"ARG_OF_PERICENTER":278.9238,"MEAN_ANOMALY":81.1498,"EPHEMERIS_TYPE":0,"CLASSIFICATION_TYPE":"U","NORAD_CAT_ID":58870,"ELEMENT_SET_NO":999,"REV_AT_EPOCH":11814,"BSTAR":5.1042e-5,"MEAN_MOTION_DOT":1.143e-5,"MEAN_MOTION_DDOT":0},{"OBJECT_NAME":"STARLINK-31214","OBJECT_ID":"2024-019U","EPOCH":"2026-03-03T00:14:58.796736","MEAN_MOTION":15.27575364,"ECCENTRICITY":0.00010901,"INCLINATION":43.0037,"RA_OF_ASC_NODE":286.3932,"ARG_OF_PERICENTER":274.0289,"MEAN_ANOMALY":86.0438,"EPHEMERIS_TYPE":0,"CLASSIFICATION_TYPE":"U","NORAD_CAT_ID":58871,"ELEMENT_SET_NO":999,"REV_AT_EPOCH":11804,"BSTAR":-1.5476896e-5,"MEAN_MOTION_DOT":-6.88e-6,"MEAN_MOTION_DDOT":0},{"OBJECT_NAME":"STARLINK-31215","OBJECT_ID":"2024-019V","EPOCH":"2026-03-03T00:18:40.822272","MEAN_MOTION":15.27577301,"ECCENTRICITY":0.00014295,"INCLINATION":43.0057,"RA_OF_ASC_NODE":286.4254,"ARG_OF_PERICENTER":266.332,"MEAN_ANOMALY":93.7368,"EPHEMERIS_TYPE":0,"CLASSIFICATION_TYPE":"U","NORAD_CAT_ID":58872,"ELEMENT_SET_NO":999,"REV_AT_EPOCH":11804,"BSTAR":2.250133e-5,"MEAN_MOTION_DOT":3.57e-6,"MEAN_MOTION_DDOT":0},{"OBJECT_NAME":"STARLINK-31177","OBJECT_ID":"2024-019W","EPOCH":"2026-03-03T00:11:17.197152","MEAN_MOTION":15.27562952,"ECCENTRICITY":0.0001129,"INCLINATION":43.0039,"RA_OF_ASC_NODE":286.3839,"ARG_OF_PERICENTER":273.7635,"MEAN_ANOMALY":86.3087,"EPHEMERIS_TYPE":0,"CLASSIFICATION_TYPE":"U","NORAD_CAT_ID":58873,"ELEMENT_SET_NO":999,"REV_AT_EPOCH":11806,"BSTAR":-1.1249693e-5,"MEAN_MOTION_DOT":-5.71e-6,"MEAN_MOTION_DDOT":0},{"OBJECT_NAME":"STARLINK-30945","OBJECT_ID":"2024-019X","EPOCH":"2026-03-03T15:06:47.319840","MEAN_MOTION":15.27575423,"ECCENTRICITY":8.82e-5,"INCLINATION":43.0009,"RA_OF_ASC_NODE":283.3023,"ARG_OF_PERICENTER":272.3365,"MEAN_ANOMALY":87.7386,"EPHEMERIS_TYPE":0,"CLASSIFICATION_TYPE":"U","NORAD_CAT_ID":58874,"ELEMENT_SET_NO":999,"REV_AT_EPOCH":11815,"BSTAR":6.1336e-5,"MEAN_MOTION_DOT":1.426e-5,"MEAN_MOTION_DDOT":0},{"OBJECT_NAME":"STARLINK-31212","OBJECT_ID":"2024-019Y","EPOCH":"2026-03-03T15:43:35.206176","MEAN_MOTION":15.27575366,"ECCENTRICITY":9.16e-5,"INCLINATION":43.0025,"RA_OF_ASC_NODE":282.649,"ARG_OF_PERICENTER":258.1203,"MEAN_ANOMALY":101.9546,"EPHEMERIS_TYPE":0,"CLASSIFICATION_TYPE":"U","NORAD_CAT_ID":58875,"ELEMENT_SET_NO":999,"REV_AT_EPOCH":11814,"BSTAR":2.1147e-5,"MEAN_MOTION_DOT":3.2e-6,"MEAN_MOTION_DDOT":0},{"OBJECT_NAME":"STARLINK-31306","OBJECT_ID":"2024-020A","EPOCH":"2026-03-03T05:13:47.986464","MEAN_MOTION":15.30203995,"ECCENTRICITY":0.00010583,"INCLINATION":53.1613,"RA_OF_ASC_NODE":352.2418,"ARG_OF_PERICENTER":102.4841,"MEAN_ANOMALY":257.6278,"EPHEMERIS_TYPE":0,"CLASSIFICATION_TYPE":"U","NORAD_CAT_ID":58876,"ELEMENT_SET_NO":999,"REV_AT_EPOCH":11826,"BSTAR":0.00039696085,"MEAN_MOTION_DOT":0.00011417,"MEAN_MOTION_DDOT":0},{"OBJECT_NAME":"STARLINK-31326","OBJECT_ID":"2024-020B","EPOCH":"2026-03-03T19:06:45.312192","MEAN_MOTION":15.30192961,"ECCENTRICITY":0.0001001,"INCLINATION":53.1618,"RA_OF_ASC_NODE":350.1567,"ARG_OF_PERICENTER":89.4504,"MEAN_ANOMALY":270.6612,"EPHEMERIS_TYPE":0,"CLASSIFICATION_TYPE":"U","NORAD_CAT_ID":58877,"ELEMENT_SET_NO":999,"REV_AT_EPOCH":11716,"BSTAR":5.6358e-5,"MEAN_MOTION_DOT":1.31e-5,"MEAN_MOTION_DDOT":0},{"OBJECT_NAME":"STARLINK-31300","OBJECT_ID":"2024-020C","EPOCH":"2026-03-03T02:10:15.014784","MEAN_MOTION":15.3019601,"ECCENTRICITY":0.00011481,"INCLINATION":53.1622,"RA_OF_ASC_NODE":352.8664,"ARG_OF_PERICENTER":74.0175,"MEAN_ANOMALY":286.0952,"EPHEMERIS_TYPE":0,"CLASSIFICATION_TYPE":"U","NORAD_CAT_ID":58878,"ELEMENT_SET_NO":999,"REV_AT_EPOCH":11706,"BSTAR":5.4447516e-5,"MEAN_MOTION_DOT":1.254e-5,"MEAN_MOTION_DDOT":0}]
