STARLINK-31149          
1 58863U 24019L   26062.64884164  .00004918  00000+0  18826-3 0  9992
2 58863  42.9989 282.6043 0000694 267.3047  92.7725 15.27555696118166
STARLINK-31242          
1 58864U 24019M   26062.61686728 -.00002939  00000+0 -97262-4 0  9991
2 58864  43.0035 283.2203 0001991 261.9267  98.1359 15.27590810118150
STARLINK-31223          
1 58865U 24019N   26062.61815256  .00001075  00000+0  48569-4 0  9996
2 58865  43.0014 283.2380 0000854 260.5710  99.5045 15.27576953118136
STARLINK-31219          
1 58866U 24019P   26062.65912739  .00000197  00000+0  16671-4 0  9998
2 58866  43.0029 282.6793 0001005 274.9211  85.1526 15.27576617118141
STARLINK-31198          
1 58867U 24019Q   26062.01424838  .00000389  00000+0  23677-4 0  9994
2 58867  43.0041 286.4223 0001570 274.5044  85.5628 15.27580356118044
STARLINK-31196          
1 58868U 24019R   26062.05408729 -.00000992  00000+0 -26546-4 0  9990
2 58868  42.9993 286.7346 0000888 265.2299  94.8451 15.27579041118044
STARLINK-31203          
1 58869U 24019S   26062.01730351 -.00000063  00000+0  72325-5 0  9991
2 58869  43.0032 282.9803 0001197 268.2189  91.8526 15.27578084118105
STARLINK-31201          
1 58870U 24019T   26062.65141072  .00001143  00000+0  51042-4 0  9990
2 58870  43.0013 282.6229 0001015 278.9238  81.1498 15.27578887118142
STARLINK-31214          
1 58871U 24019U   26062.01040274 -.00000688  00000+0 -15477-4 0  9990
2 58871  43.0037 286.3932 0001090 274.0289  86.0438 15.27575364118041
STARLINK-31215          
1 58872U 24019V   26062.01297248  .00000357  00000+0  22501-4 0  9993
2 58872  43.0057 286.4254 0001429 266.3320  93.7368 15.27577301118048
STARLINK-31177          
1 58873U 24019W   26062.00783793 -.00000571  00000+0 -11250-4 0  9997
2 58873  43.0039 286.3839 0001129 273.7635  86.3087 15.27562952118069
STARLINK-30945          
1 58874U 24019X   26062.62971435  .00001426  00000+0  61336-4 0  9996
2 58874  43.0009 283.3023 0000882 272.3365  87.7386 15.27575423118153
STARLINK-31212          
1 58875U 24019Y   26062.65526859  .00000320  00000+0  21147-4 0  9994
2 58875  43.0025 282.6490 0000916 258.1203 101.9546 15.27575366118145
STARLINK-31306          
1 58876U 24020A   26062.21791651  .00011417  00000+0  39696-3 0  9999
2 58876  53.1613 352.2418 0001058 102.4841 257.6278 15.30203995118266
STARLINK-31326          
1 58877U 24020B   26062.79635778  .00001310  00000+0  56358-4 0  9996
2 58877  53.1618 350.1567 0001001  89.4504 270.6612 15.30192961117167
STARLINK-31300          
1 58878U 24020C   26062.09045156  .00001254  00000+0  54448-4 0  9990
2 58878  53.1622 352.8664 0001148  74.0175 286.0952 15.30196010117062
